{"type": "FeatureCollection", "features": [ {"type": "Feature", "properties": {"norad_id": 30110, "name": "FENGYUN 1C DEB", "group": "fengyun-1c-debris", "lat": -40.449071217120206, "lon": -83.19235410105277, "alt_km": 1107.772503174764, "timestamp": "2025-12-22T14:45:57.676540+00:00", "meta": {"OBJECT_NAME": "FENGYUN 1C DEB", "OBJECT_ID": "1999-025RP", "EPOCH": "2025-12-22T06:34:31.459872", "MEAN_MOTION": 13.56228833, "ECCENTRICITY": 0.02672774, "INCLINATION": 98.9076, "RA_OF_ASC_NODE": 104.1822, "ARG_OF_PERICENTER": 328.4656, "MEAN_ANOMALY": 30.07, "EPHEMERIS_TYPE": 0, "CLASSIFICATION_TYPE": "U", "NORAD_CAT_ID": 30110, "ELEMENT_SET_NO": 999, "REV_AT_EPOCH": 93644, "BSTAR": 0.00027496854, "MEAN_MOTION_DOT": 2.03e-06, "MEAN_MOTION_DDOT": 0}, "tle": {"line1": "1 30110U 99025RP  25356.27397523  .00000203  00000+0  27497-3 0  9995", "line2": "2 30110  98.9076 104.1822 0267277 328.4656  30.0700 13.56228833936446"}}, "geometry": {"type": "Point", "coordinates": [-83.19235410105277, -40.449071217120206]}}, {"type": "Feature", "properties": {"norad_id": 30112, "name": "FENGYUN 1C DEB", "group": "fengyun-1c-debris", "lat": -57.79137743506315, "lon": 136.0375960021543, "alt_km": 960.3488642770326, "timestamp": "2025-12-22T14:45:57.676550+00:00", "meta": {"OBJECT_NAME": "FENGYUN 1C DEB", "OBJECT_ID": "1999-025RR", "EPOCH": "2025-12-21T20:46:35.101920", "MEAN_MOTION": 14.22248174, "ECCENTRICITY": 0.02018953, "INCLINATION": 99.2824, "RA_OF_ASC_NODE": 330.2958, "ARG_OF_PERICENTER": 81.7897, "MEAN_ANOMALY": 280.6121, "EPHEMERIS_TYPE": 0, "CLASSIFICATION_TYPE": "U", "NORAD_CAT_ID": 30112, "ELEMENT_SET_NO": 999, "REV_AT_EPOCH": 97712, "BSTAR": 0.00053599342, "MEAN_MOTION_DOT": 1.415e-05, "MEAN_MOTION_DDOT": 0}, "tle": {"line1": "1 30112U 99025RR  25355.86568405  .00001415  00000+0  53599-3 0  9998", "line2": "2 30112  99.2824 330.2958 0201895  81.7897 280.6121 14.22248174977129"}}, "geometry": {"type": "Point", "coordinates": [136.0375960021543, -57.79137743506315]}}, {"type": "Feature", "properties": {"norad_id": 30113, "name": "FENGYUN 1C DEB", "group": "fengyun-1c-debris", "lat": -38.55341933026965, "lon": 22.144949369616274, "alt_km": 758.7816765672114, "timestamp": "2025-12-22T14:45:57.676561+00:00", "meta": {"OBJECT_NAME": "FENGYUN 1C DEB", "OBJECT_ID": "1999-025RS", "EPOCH": "2025-12-21T12:58:15.458880", "MEAN_MOTION": 14.4542907, "ECCENTRICITY": 0.0040537, "INCLINATION": 99.037, "RA_OF_ASC_NODE": 208.2883, "ARG_OF_PERICENTER": 336.5683, "MEAN_ANOMALY": 53.3219, "EPHEMERIS_TYPE": 0, "CLASSIFICATION_TYPE": "U", "NORAD_CAT_ID": 30113, "ELEMENT_SET_NO": 999, "REV_AT_EPOCH": 98036, "BSTAR": 0.0014554833, "MEAN_MOTION_DOT": 5.128e-05, "MEAN_MOTION_DDOT": 0}, "tle": {"line1": "1 30113U 99025RS  25355.54045670  .00005128  00000+0  14555-2 0  9991", "line2": "2 30113  99.0370 208.2883 0040537 336.5683  53.3219 14.45429070980367"}}, "geometry": {"type": "Point", "coordinates": [22.144949369616274, -38.55341933026965]}}, {"type": "Feature", "properties": {"norad_id": 30114, "name": "FENGYUN 1C DEB", "group": "fengyun-1c-debris", "lat": 0.7185381319136539, "lon": 178.80755777439379, "alt_km": 859.7210820705495, "timestamp": "2025-12-22T14:45:57.676571+00:00", "meta": {"OBJECT_NAME": "FENGYUN 1C DEB", "OBJECT_ID": "1999-025RT", "EPOCH": "2025-12-22T07:11:23.243712", "MEAN_MOTION": 14.09658926, "ECCENTRICITY": 0.00823585, "INCLINATION": 98.747, "RA_OF_ASC_NODE": 358.3902, "ARG_OF_PERICENTER": 93.0602, "MEAN_ANOMALY": 284.0613, "EPHEMERIS_TYPE": 0, "CLASSIFICATION_TYPE": "U", "NORAD_CAT_ID": 30114, "ELEMENT_SET_NO": 999, "REV_AT_EPOCH": 97289, "BSTAR": 0.00023365798, "MEAN_MOTION_DOT": 3.81e-06, "MEAN_MOTION_DDOT": 0}, "tle": {"line1": "1 30114U 99025RT  25356.29957458  .00000381  00000+0  23366-3 0  9998", "line2": "2 30114  98.7470 358.3902 0082358  93.0602 284.0613 14.09658926972891"}}, "geometry": {"type": "Point", "coordinates": [178.80755777439379, 0.7185381319136539]}}, {"type": "Feature", "properties": {"norad_id": 30115, "name": "FENGYUN 1C DEB", "group": "fengyun-1c-debris", "lat": -66.67500500446246, "lon": -176.9570832420762, "alt_km": 872.4223361665918, "timestamp": "2025-12-22T14:45:57.676582+00:00", "meta": {"OBJECT_NAME": "FENGYUN 1C DEB", "OBJECT_ID": "1999-025RU", "EPOCH": "2025-12-22T01:52:10.557408", "MEAN_MOTION": 14.19813197, "ECCENTRICITY": 0.00673651, "INCLINATION": 98.6217, "RA_OF_ASC_NODE": 23.1211, "ARG_OF_PERICENTER": 33.8924, "MEAN_ANOMALY": 349.7329, "EPHEMERIS_TYPE": 0, "CLASSIFICATION_TYPE": "U", "NORAD_CAT_ID": 30115, "ELEMENT_SET_NO": 999, "REV_AT_EPOCH": 97461, "BSTAR": 0.00084801647, "MEAN_MOTION_DOT": 1.796e-05, "MEAN_MOTION_DDOT": 0}, "tle": {"line1": "1 30115U 99025RU  25356.07789997  .00001796  00000+0  84802-3 0  9999", "line2": "2 30115  98.6217  23.1211 0067365  33.8924 349.7329 14.19813197974619"}}, "geometry": {"type": "Point", "coordinates": [-176.9570832420762, -66.67500500446246]}}, {"type": "Feature", "properties": {"norad_id": 30116, "name": "FENGYUN 1C DEB", "group": "fengyun-1c-debris", "lat": 27.58932256183744, "lon": -106.62102455499861, "alt_km": 806.6755380804516, "timestamp": "2025-12-22T14:45:57.676593+00:00", "meta": {"OBJECT_NAME": "FENGYUN 1C DEB", "OBJECT_ID": "1999-025RV", "EPOCH": "2025-12-22T04:17:48.730272", "MEAN_MOTION": 14.29341964, "ECCENTRICITY": 0.00207199, "INCLINATION": 99.397, "RA_OF_ASC_NODE": 67.9447, "ARG_OF_PERICENTER": 313.2519, "MEAN_ANOMALY": 115.3793, "EPHEMERIS_TYPE": 0, "CLASSIFICATION_TYPE": "U", "NORAD_CAT_ID": 30116, "ELEMENT_SET_NO": 999, "REV_AT_EPOCH": 97644, "BSTAR": 0.00129638, "MEAN_MOTION_DOT": 3.26e-05, "MEAN_MOTION_DDOT": 0}, "tle": {"line1": "1 30116U 99025RV  25356.17903623  .00003260  00000+0  12964-2 0  9992", "line2": "2 30116  99.3970  67.9447 0020719 313.2519 115.3793 14.29341964976442"}}, "geometry": {"type": "Point", "coordinates": [-106.62102455499861, 27.58932256183744]}}, {"type": "Feature", "properties": {"norad_id": 30117, "name": "FENGYUN 1C DEB", "group": "fengyun-1c-debris", "lat": 4.868736635089579, "lon": -15.943810165858432, "alt_km": 990.00608784628, "timestamp": "2025-12-22T14:45:57.676603+00:00", "meta": {"OBJECT_NAME": "FENGYUN 1C DEB", "OBJECT_ID": "1999-025RW", "EPOCH": "2025-12-22T06:17:29.967360", "MEAN_MOTION": 14.07168204, "ECCENTRICITY": 0.01641015, "INCLINATION": 98.805, "RA_OF_ASC_NODE": 344.4686, "ARG_OF_PERICENTER": 182.3112, "MEAN_ANOMALY": 195.1188, "EPHEMERIS_TYPE": 0, "CLASSIFICATION_TYPE": "U", "NORAD_CAT_ID": 30117, "ELEMENT_SET_NO": 999, "REV_AT_EPOCH": 97123, "BSTAR": 0.00027330606, "MEAN_MOTION_DOT": 4.75e-06, "MEAN_MOTION_DDOT": 0}, "tle": {"line1": "1 30117U 99025RW  25356.26215240  .00000475  00000+0  27331-3 0  9994", "line2": "2 30117  98.8050 344.4686 0164101 182.3112 195.1188 14.07168204971238"}}, "geometry": {"type": "Point", "coordinates": [-15.943810165858432, 4.868736635089579]}}, {"type": "Feature", "properties": {"norad_id": 30118, "name": "FENGYUN 1C DEB", "group": "fengyun-1c-debris", "lat": 24.84803777067365, "lon": -4.05207415104869, "alt_km": 814.0718751997265, "timestamp": "2025-12-22T14:45:57.676613+00:00", "meta": {"OBJECT_NAME": "FENGYUN 1C DEB", "OBJECT_ID": "1999-025RX", "EPOCH": "2025-12-21T21:51:48.965760", "MEAN_MOTION": 14.05124606, "ECCENTRICITY": 0.0085047, "INCLINATION": 98.8029, "RA_OF_ASC_NODE": 359.3794, "ARG_OF_PERICENTER": 34.3261, "MEAN_ANOMALY": 30.5334, "EPHEMERIS_TYPE": 0, "CLASSIFICATION_TYPE": "U", "NORAD_CAT_ID": 30118, "ELEMENT_SET_NO": 999, "REV_AT_EPOCH": 97060, "BSTAR": 3.3058776e-05, "MEAN_MOTION_DOT": 1.3e-07, "MEAN_MOTION_DDOT": 0}, "tle": {"line1": "1 30118U 99025RX  25355.91098340  .00000013  00000+0  33059-4 0  9999", "line2": "2 30118  98.8029 359.3794 0085047  34.3261  30.5334 14.05124606970603"}}, "geometry": {"type": "Point", "coordinates": [-4.05207415104869, 24.84803777067365]}}, {"type": "Feature", "properties": {"norad_id": 30119, "name": "FENGYUN 1C DEB", "group": "fengyun-1c-debris", "lat": -29.68791662887582, "lon": 165.04218255631983, "alt_km": 767.0647790044322, "timestamp": "2025-12-22T14:45:57.676624+00:00", "meta": {"OBJECT_NAME": "FENGYUN 1C DEB", "OBJECT_ID": "1999-025RY", "EPOCH": "2025-12-21T11:22:48.689760", "MEAN_MOTION": 14.22293665, "ECCENTRICITY": 0.0130659, "INCLINATION": 97.9202, "RA_OF_ASC_NODE": 348.5683, "ARG_OF_PERICENTER": 266.9972, "MEAN_ANOMALY": 224.8562, "EPHEMERIS_TYPE": 0, "CLASSIFICATION_TYPE": "U", "NORAD_CAT_ID": 30119, "ELEMENT_SET_NO": 999, "REV_AT_EPOCH": 97304, "BSTAR": 0.0010592084, "MEAN_MOTION_DOT": 2.53e-05, "MEAN_MOTION_DDOT": 0}, "tle": {"line1": "1 30119U 99025RY  25355.47417465  .00002530  00000+0  10592-2 0  9995", "line2": "2 30119  97.9202 348.5683 0130659 266.9972 224.8562 14.22293665973049"}}, "geometry": {"type": "Point", "coordinates": [165.04218255631983, -29.68791662887582]}}, {"type": "Feature", "properties": {"norad_id": 30120, "name": "FENGYUN 1C DEB", "group": "fengyun-1c-debris", "lat": 3.2393449104949785, "lon": 78.13457391336792, "alt_km": 847.8271178731429, "timestamp": "2025-12-22T14:45:57.676634+00:00", "meta": {"OBJECT_NAME": "FENGYUN 1C DEB", "OBJECT_ID": "1999-025RZ", "EPOCH": "2025-12-22T04:57:24.231744", "MEAN_MOTION": 14.27684113, "ECCENTRICITY": 0.00638969, "INCLINATION": 98.8515, "RA_OF_ASC_NODE": 78.226, "ARG_OF_PERICENTER": 184.6211, "MEAN_ANOMALY": 239.2729, "EPHEMERIS_TYPE": 0, "CLASSIFICATION_TYPE": "U", "NORAD_CAT_ID": 30120, "ELEMENT_SET_NO": 999, "REV_AT_EPOCH": 97506, "BSTAR": 0.0018470544, "MEAN_MOTION_DOT": 4.611e-05, "MEAN_MOTION_DDOT": 0}, "tle": {"line1": "1 30120U 99025RZ  25356.20653046  .00004611  00000+0  18471-2 0  9992", "line2": "2 30120  98.8515  78.2260 0063896 184.6211 239.2729 14.27684113975062"}}, "geometry": {"type": "Point", "coordinates": [78.13457391336792, 3.2393449104949785]}}]}